STARLINK-36192          
1 67024U 25293X   26004.58335648  .00047991  00000+0  77883-3 0  9999
2 67024  69.9992 258.8767 0003385 265.3879 169.6208 15.52492593  3883
STARLINK-36178          
1 67025U 25293Y   26004.66670139  .00111419  00000+0  17945-2 0  9995
2 67025  69.9994 258.6461 0003372 267.1970 275.4859 15.52425936  3899
STARLINK-36176          
1 67026U 25293Z   26004.66670139  .00009301  00000+0  15372-3 0  9995
2 67026  69.9994 258.6416 0003406 265.1610 281.2676 15.52519911  3896
STARLINK-36171          
1 67027U 25293AA  26004.05381826  .00130487  00000+0  20858-2 0  9995
2 67027  69.9991 260.3230 0003630 264.7787  95.2986 15.52562846  5138
STARLINK-36132          
1 67028U 25293AB  26004.82594272  .00118954  00000+0  19020-2 0  9996
2 67028  69.9992 258.2009 0003820 267.7970  92.2780 15.52597425  5251
STARLINK-36190          
1 67029U 25293AC  26004.82629976  .00119288  00000+0  19075-2 0  9998
2 67029  69.9990 258.2034 0003472 270.7477  89.3312 15.52595361  5252
STARLINK-36138          
1 67030U 25294A   26004.83335648  .00006032  00000+0  15163-3 0  9999
2 67030  42.9999  43.5012 0001474 278.5238 232.1451 15.40684207  3802
STARLINK-36150          
1 67031U 25294B   26004.83335648  .00009169  00000+0  22659-3 0  9992
2 67031  43.0007  43.6216 0001211 258.1276 202.7486 15.40685014  4008
STARLINK-36131          
1 67032U 25294C   26004.83335648  .00010637  00000+0  26162-3 0  9998
2 67032  43.0009  43.7124 0001756 251.4756 172.0710 15.40689455  3802
STARLINK-36137          
1 67033U 25294D   26004.83335648  .00016150  00000+0  39317-3 0  9991
2 67033  43.0009  43.6826 0001217 268.9183 167.0600 15.40691601  3808
STARLINK-36140          
1 67034U 25294E   26004.58335648  .00096097  00000+0  22832-2 0  9995
2 67034  43.0005  45.0340 0001007 281.5964 243.4553 15.40642902  3768
STARLINK-36085          
1 67035U 25294F   26003.50655291  .00180272  00000+0  30030-2 0  9994
2 67035  43.0000  51.1034 0001445 278.9733  81.0964 15.50629302  4776
