CCSDS_OMM_VERS = 2.0
CREATION_DATE  = 
ORIGINATOR     = 

OBJECT_NAME    = STARLINK-36192
OBJECT_ID      = 2025-293X
CENTER_NAME    = EARTH
REF_FRAME      = TEME
TIME_SYSTEM    = UTC
MEAN_ELEMENT_THEORY = SGP/SGP4

EPOCH          = 2026-01-04T14:00:01.999872
MEAN_MOTION    = 15.52492593
ECCENTRICITY   = .00033855
INCLINATION    = 69.9992
RA_OF_ASC_NODE = 258.8767
ARG_OF_PERICENTER = 265.3879
MEAN_ANOMALY   = 169.6208

EPHEMERIS_TYPE = 0
CLASSIFICATION_TYPE = U
NORAD_CAT_ID   = 67024
ELEMENT_SET_NO = 999
REV_AT_EPOCH   = 388
BSTAR          = .77882751E-3
MEAN_MOTION_DOT = .47991E-3
MEAN_MOTION_DDOT = 0

CCSDS_OMM_VERS = 2.0
CREATION_DATE  = 
ORIGINATOR     = 

OBJECT_NAME    = STARLINK-36178
OBJECT_ID      = 2025-293Y
CENTER_NAME    = EARTH
REF_FRAME      = TEME
TIME_SYSTEM    = UTC
MEAN_ELEMENT_THEORY = SGP/SGP4

EPOCH          = 2026-01-04T16:00:03.000096
MEAN_MOTION    = 15.52425936
ECCENTRICITY   = .0003372
INCLINATION    = 69.9994
RA_OF_ASC_NODE = 258.6461
ARG_OF_PERICENTER = 267.1970
MEAN_ANOMALY   = 275.4859

EPHEMERIS_TYPE = 0
CLASSIFICATION_TYPE = U
NORAD_CAT_ID   = 67025
ELEMENT_SET_NO = 999
REV_AT_EPOCH   = 389
BSTAR          = .17945E-2
MEAN_MOTION_DOT = .111419E-2
MEAN_MOTION_DDOT = 0

CCSDS_OMM_VERS = 2.0
CREATION_DATE  = 
ORIGINATOR     = 

OBJECT_NAME    = STARLINK-36176
OBJECT_ID      = 2025-293Z
CENTER_NAME    = EARTH
REF_FRAME      = TEME
TIME_SYSTEM    = UTC
MEAN_ELEMENT_THEORY = SGP/SGP4

EPOCH          = 2026-01-04T16:00:03.000096
MEAN_MOTION    = 15.52519911
ECCENTRICITY   = .0003406
INCLINATION    = 69.9994
RA_OF_ASC_NODE = 258.6416
ARG_OF_PERICENTER = 265.1610
MEAN_ANOMALY   = 281.2676

EPHEMERIS_TYPE = 0
CLASSIFICATION_TYPE = U
NORAD_CAT_ID   = 67026
ELEMENT_SET_NO = 999
REV_AT_EPOCH   = 389
BSTAR          = .15372E-3
MEAN_MOTION_DOT = .9301E-4
MEAN_MOTION_DDOT = 0

CCSDS_OMM_VERS = 2.0
CREATION_DATE  = 
ORIGINATOR     = 

OBJECT_NAME    = STARLINK-36171
OBJECT_ID      = 2025-293AA
CENTER_NAME    = EARTH
REF_FRAME      = TEME
TIME_SYSTEM    = UTC
MEAN_ELEMENT_THEORY = SGP/SGP4

EPOCH          = 2026-01-04T01:17:29.897664
MEAN_MOTION    = 15.52562846
ECCENTRICITY   = .000363
INCLINATION    = 69.9991
RA_OF_ASC_NODE = 260.3230
ARG_OF_PERICENTER = 264.7787
MEAN_ANOMALY   = 95.2986

EPHEMERIS_TYPE = 0
CLASSIFICATION_TYPE = U
NORAD_CAT_ID   = 67027
ELEMENT_SET_NO = 999
REV_AT_EPOCH   = 513
BSTAR          = .20857501E-2
MEAN_MOTION_DOT = .130487E-2
MEAN_MOTION_DDOT = 0

CCSDS_OMM_VERS = 2.0
CREATION_DATE  = 
ORIGINATOR     = 

OBJECT_NAME    = STARLINK-36132
OBJECT_ID      = 2025-293AB
CENTER_NAME    = EARTH
REF_FRAME      = TEME
TIME_SYSTEM    = UTC
MEAN_ELEMENT_THEORY = SGP/SGP4

EPOCH          = 2026-01-04T19:49:21.451008
MEAN_MOTION    = 15.52597425
ECCENTRICITY   = .000382
INCLINATION    = 69.9992
RA_OF_ASC_NODE = 258.2009
ARG_OF_PERICENTER = 267.7970
MEAN_ANOMALY   = 92.2780

EPHEMERIS_TYPE = 0
CLASSIFICATION_TYPE = U
NORAD_CAT_ID   = 67028
ELEMENT_SET_NO = 999
REV_AT_EPOCH   = 525
BSTAR          = .1902E-2
MEAN_MOTION_DOT = .118954E-2
MEAN_MOTION_DDOT = 0

CCSDS_OMM_VERS = 2.0
CREATION_DATE  = 
ORIGINATOR     = 

OBJECT_NAME    = STARLINK-36190
OBJECT_ID      = 2025-293AC
CENTER_NAME    = EARTH
REF_FRAME      = TEME
TIME_SYSTEM    = UTC
MEAN_ELEMENT_THEORY = SGP/SGP4

EPOCH          = 2026-01-04T19:49:52.299264
MEAN_MOTION    = 15.52595361
ECCENTRICITY   = .0003472
INCLINATION    = 69.9990
RA_OF_ASC_NODE = 258.2034
ARG_OF_PERICENTER = 270.7477
MEAN_ANOMALY   = 89.3312

EPHEMERIS_TYPE = 0
CLASSIFICATION_TYPE = U
NORAD_CAT_ID   = 67029
ELEMENT_SET_NO = 999
REV_AT_EPOCH   = 525
BSTAR          = .19075E-2
MEAN_MOTION_DOT = .119288E-2
MEAN_MOTION_DDOT = 0

CCSDS_OMM_VERS = 2.0
CREATION_DATE  = 
ORIGINATOR     = 

OBJECT_NAME    = STARLINK-36138
OBJECT_ID      = 2025-294A
CENTER_NAME    = EARTH
REF_FRAME      = TEME
TIME_SYSTEM    = UTC
MEAN_ELEMENT_THEORY = SGP/SGP4

EPOCH          = 2026-01-04T20:00:01.999872
MEAN_MOTION    = 15.40684207
ECCENTRICITY   = .0001474
INCLINATION    = 42.9999
RA_OF_ASC_NODE = 43.5012
ARG_OF_PERICENTER = 278.5238
MEAN_ANOMALY   = 232.1451

EPHEMERIS_TYPE = 0
CLASSIFICATION_TYPE = U
NORAD_CAT_ID   = 67030
ELEMENT_SET_NO = 999
REV_AT_EPOCH   = 380
BSTAR          = .15163E-3
MEAN_MOTION_DOT = .6032E-4
MEAN_MOTION_DDOT = 0

CCSDS_OMM_VERS = 2.0
CREATION_DATE  = 
ORIGINATOR     = 

OBJECT_NAME    = STARLINK-36150
OBJECT_ID      = 2025-294B
CENTER_NAME    = EARTH
REF_FRAME      = TEME
TIME_SYSTEM    = UTC
MEAN_ELEMENT_THEORY = SGP/SGP4

EPOCH          = 2026-01-04T20:00:01.999872
MEAN_MOTION    = 15.40685014
ECCENTRICITY   = .0001211
INCLINATION    = 43.0007
RA_OF_ASC_NODE = 43.6216
ARG_OF_PERICENTER = 258.1276
MEAN_ANOMALY   = 202.7486

EPHEMERIS_TYPE = 0
CLASSIFICATION_TYPE = U
NORAD_CAT_ID   = 67031
ELEMENT_SET_NO = 999
REV_AT_EPOCH   = 400
BSTAR          = .22659E-3
MEAN_MOTION_DOT = .9169E-4
MEAN_MOTION_DDOT = 0

CCSDS_OMM_VERS = 2.0
CREATION_DATE  = 
ORIGINATOR     = 

OBJECT_NAME    = STARLINK-36131
OBJECT_ID      = 2025-294C
CENTER_NAME    = EARTH
REF_FRAME      = TEME
TIME_SYSTEM    = UTC
MEAN_ELEMENT_THEORY = SGP/SGP4

EPOCH          = 2026-01-04T20:00:01.999872
MEAN_MOTION    = 15.40689455
ECCENTRICITY   = .0001756
INCLINATION    = 43.0009
RA_OF_ASC_NODE = 43.7124
ARG_OF_PERICENTER = 251.4756
MEAN_ANOMALY   = 172.0710

EPHEMERIS_TYPE = 0
CLASSIFICATION_TYPE = U
NORAD_CAT_ID   = 67032
ELEMENT_SET_NO = 999
REV_AT_EPOCH   = 380
BSTAR          = .26162E-3
MEAN_MOTION_DOT = .10637E-3
MEAN_MOTION_DDOT = 0

CCSDS_OMM_VERS = 2.0
CREATION_DATE  = 
ORIGINATOR     = 

OBJECT_NAME    = STARLINK-36137
OBJECT_ID      = 2025-294D
CENTER_NAME    = EARTH
REF_FRAME      = TEME
TIME_SYSTEM    = UTC
MEAN_ELEMENT_THEORY = SGP/SGP4

EPOCH          = 2026-01-04T20:00:01.999872
MEAN_MOTION    = 15.40691601
ECCENTRICITY   = .0001217
INCLINATION    = 43.0009
RA_OF_ASC_NODE = 43.6826
ARG_OF_PERICENTER = 268.9183
MEAN_ANOMALY   = 167.0600

EPHEMERIS_TYPE = 0
CLASSIFICATION_TYPE = U
NORAD_CAT_ID   = 67033
ELEMENT_SET_NO = 999
REV_AT_EPOCH   = 380
BSTAR          = .39317E-3
MEAN_MOTION_DOT = .1615E-3
MEAN_MOTION_DDOT = 0

CCSDS_OMM_VERS = 2.0
CREATION_DATE  = 
ORIGINATOR     = 

OBJECT_NAME    = STARLINK-36140
OBJECT_ID      = 2025-294E
CENTER_NAME    = EARTH
REF_FRAME      = TEME
TIME_SYSTEM    = UTC
MEAN_ELEMENT_THEORY = SGP/SGP4

EPOCH          = 2026-01-04T14:00:01.999872
MEAN_MOTION    = 15.40642902
ECCENTRICITY   = .00010077
INCLINATION    = 43.0005
RA_OF_ASC_NODE = 45.0340
ARG_OF_PERICENTER = 281.5964
MEAN_ANOMALY   = 243.4553

EPHEMERIS_TYPE = 0
CLASSIFICATION_TYPE = U
NORAD_CAT_ID   = 67034
ELEMENT_SET_NO = 999
REV_AT_EPOCH   = 376
BSTAR          = .22831822E-2
MEAN_MOTION_DOT = .96097E-3
MEAN_MOTION_DDOT = 0

CCSDS_OMM_VERS = 2.0
CREATION_DATE  = 
ORIGINATOR     = 

OBJECT_NAME    = STARLINK-36085
OBJECT_ID      = 2025-294F
CENTER_NAME    = EARTH
REF_FRAME      = TEME
TIME_SYSTEM    = UTC
MEAN_ELEMENT_THEORY = SGP/SGP4

EPOCH          = 2026-01-03T12:09:26.171424
MEAN_MOTION    = 15.50629302
ECCENTRICITY   = .0001445
INCLINATION    = 43.0000
RA_OF_ASC_NODE = 51.1034
ARG_OF_PERICENTER = 278.9733
MEAN_ANOMALY   = 81.0964

EPHEMERIS_TYPE = 0
CLASSIFICATION_TYPE = U
NORAD_CAT_ID   = 67035
ELEMENT_SET_NO = 999
REV_AT_EPOCH   = 477
BSTAR          = .30030462E-2
MEAN_MOTION_DOT = .180272E-2
MEAN_MOTION_DDOT = 0

